{"type": "FeatureCollection", "features": [{"type": "Feature", "properties": {"norad_id": 22490, "name": "SCD 1", "group": "resource", "lat": 24.618776175610325, "lon": 30.06395210758367, "alt_km": 759.6980969560782, "timestamp": "2025-12-10T21:43:21.742834+00:00", "meta": {"OBJECT_NAME": "SCD 1", "OBJECT_ID": "1993-009B", "EPOCH": "2025-12-10T13:43:36.179328", "MEAN_MOTION": 14.45996759, "ECCENTRICITY": 0.00417468, "INCLINATION": 24.9703, "RA_OF_ASC_NODE": 292.0692, "ARG_OF_PERICENTER": 301.9893, "MEAN_ANOMALY": 219.0671, "EPHEMERIS_TYPE": 0, "CLASSIFICATION_TYPE": "U", "NORAD_CAT_ID": 22490, "ELEMENT_SET_NO": 999, "REV_AT_EPOCH": 73378, "BSTAR": 0.00015981204, "MEAN_MOTION_DOT": 7.7e-06, "MEAN_MOTION_DDOT": 0}, "tle": {"line1": "1 22490U 93009B   25344.57194652  .00000770  00000+0  15981-3 0  9995", "line2": "2 22490  24.9703 292.0692 0041746 301.9893 219.0671 14.45996759733782"}}, "geometry": {"type": "Point", "coordinates": [30.06395210758367, 24.618776175610325]}}, {"type": "Feature", "properties": {"norad_id": 25397, "name": "TECHSAT 1B (GO-32)", "group": "resource", "lat": 52.13242200949795, "lon": 159.82429001951633, "alt_km": 805.0963711674658, "timestamp": "2025-12-10T21:43:21.742864+00:00", "meta": {"OBJECT_NAME": "TECHSAT 1B (GO-32)", "OBJECT_ID": "1998-043D", "EPOCH": "2025-12-10T09:19:40.960992", "MEAN_MOTION": 14.24375977, "ECCENTRICITY": 0.00021301, "INCLINATION": 98.9918, "RA_OF_ASC_NODE": 327.5465, "ARG_OF_PERICENTER": 61.168, "MEAN_ANOMALY": 298.9711, "EPHEMERIS_TYPE": 0, "CLASSIFICATION_TYPE": "U", "NORAD_CAT_ID": 25397, "ELEMENT_SET_NO": 999, "REV_AT_EPOCH": 42445, "BSTAR": 9.4254531e-05, "MEAN_MOTION_DOT": 1.71e-06, "MEAN_MOTION_DDOT": 0}, "tle": {"line1": "1 25397U 98043D   25344.38866853  .00000171  00000+0  94255-4 0  9992", "line2": "2 25397  98.9918 327.5465 0002130  61.1680 298.9711 14.24375977424457"}}, "geometry": {"type": "Point", "coordinates": [159.82429001951633, 52.13242200949795]}}, {"type": "Feature", "properties": {"norad_id": 25504, "name": "SCD 2", "group": "resource", "lat": 17.4446016178416, "lon": -69.20781113694363, "alt_km": 747.1846510054293, "timestamp": "2025-12-10T21:43:21.742880+00:00", "meta": {"OBJECT_NAME": "SCD 2", "OBJECT_ID": "1998-060A", "EPOCH": "2025-12-10T14:46:13.327392", "MEAN_MOTION": 14.45421583, "ECCENTRICITY": 0.00165993, "INCLINATION": 24.9931, "RA_OF_ASC_NODE": 154.9953, "ARG_OF_PERICENTER": 290.9292, "MEAN_ANOMALY": 133.4568, "EPHEMERIS_TYPE": 0, "CLASSIFICATION_TYPE": "U", "NORAD_CAT_ID": 25504, "ELEMENT_SET_NO": 999, "REV_AT_EPOCH": 43301, "BSTAR": 0.0001194936, "MEAN_MOTION_DOT": 6.1e-06, "MEAN_MOTION_DDOT": 0}, "tle": {"line1": "1 25504U 98060A   25344.61543203  .00000610  00000+0  11949-3 0  9994", "line2": "2 25504  24.9931 154.9953 0016599 290.9292 133.4568 14.45421583433013"}}, "geometry": {"type": "Point", "coordinates": [-69.20781113694363, 17.4446016178416]}}, {"type": "Feature", "properties": {"norad_id": 25757, "name": "DLR-TUBSAT", "group": "resource", "lat": 19.09766485272947, "lon": 152.38576053045935, "alt_km": 710.4390694809044, "timestamp": "2025-12-10T21:43:21.742893+00:00", "meta": {"OBJECT_NAME": "DLR-TUBSAT", "OBJECT_ID": "1999-029B", "EPOCH": "2025-12-10T09:24:39.471264", "MEAN_MOTION": 14.52356238, "ECCENTRICITY": 0.00137588, "INCLINATION": 98.6562, "RA_OF_ASC_NODE": 328.8335, "ARG_OF_PERICENTER": 200.082, "MEAN_ANOMALY": 159.9835, "EPHEMERIS_TYPE": 0, "CLASSIFICATION_TYPE": "U", "NORAD_CAT_ID": 25757, "ELEMENT_SET_NO": 999, "REV_AT_EPOCH": 40584, "BSTAR": 7.3599921e-05, "MEAN_MOTION_DOT": 2.51e-06, "MEAN_MOTION_DDOT": 0}, "tle": {"line1": "1 25757U 99029B   25344.39212351  .00000251  00000+0  73600-4 0  9996", "line2": "2 25757  98.6562 328.8335 0013758 200.0820 159.9835 14.52356238405842"}}, "geometry": {"type": "Point", "coordinates": [152.38576053045935, 19.09766485272947]}}, {"type": "Feature", "properties": {"norad_id": 25994, "name": "TERRA", "group": "resource", "lat": 12.109588233552833, "lon": -141.61933953701845, "alt_km": 690.6850500666433, "timestamp": "2025-12-10T21:43:21.742905+00:00", "meta": {"OBJECT_NAME": "TERRA", "OBJECT_ID": "1999-068A", "EPOCH": "2025-12-10T15:04:50.401632", "MEAN_MOTION": 14.6089809, "ECCENTRICITY": 0.00035964, "INCLINATION": 97.9752, "RA_OF_ASC_NODE": 36.3904, "ARG_OF_PERICENTER": 98.6615, "MEAN_ANOMALY": 54.323, "EPHEMERIS_TYPE": 0, "CLASSIFICATION_TYPE": "U", "NORAD_CAT_ID": 25994, "ELEMENT_SET_NO": 999, "REV_AT_EPOCH": 38207, "BSTAR": 0.00015854021, "MEAN_MOTION_DOT": 7.31e-06, "MEAN_MOTION_DDOT": 0}, "tle": {"line1": "1 25994U 99068A   25344.62836113  .00000731  00000+0  15854-3 0  9995", "line2": "2 25994  97.9752  36.3904 0003596  98.6615  54.3230 14.60898090382075"}}, "geometry": {"type": "Point", "coordinates": [-141.61933953701845, 12.109588233552833]}}, {"type": "Feature", "properties": {"norad_id": 27004, "name": "MAROC-TUBSAT", "group": "resource", "lat": 33.53579585540071, "lon": 146.74596102669165, "alt_km": 1005.3024833003137, "timestamp": "2025-12-10T21:43:21.742917+00:00", "meta": {"OBJECT_NAME": "MAROC-TUBSAT", "OBJECT_ID": "2001-056D", "EPOCH": "2025-12-10T11:07:51.424032", "MEAN_MOTION": 13.70252712, "ECCENTRICITY": 0.00190921, "INCLINATION": 99.7912, "RA_OF_ASC_NODE": 152.8689, "ARG_OF_PERICENTER": 266.2021, "MEAN_ANOMALY": 111.9402, "EPHEMERIS_TYPE": 0, "CLASSIFICATION_TYPE": "U", "NORAD_CAT_ID": 27004, "ELEMENT_SET_NO": 999, "REV_AT_EPOCH": 20034, "BSTAR": 4.2568773e-05, "MEAN_MOTION_DOT": -9e-08, "MEAN_MOTION_DDOT": 0}, "tle": {"line1": "1 27004U 01056D   25344.46378963 -.00000009  00000+0  42569-4 0  9998", "line2": "2 27004  99.7912 152.8689 0019092 266.2021 111.9402 13.70252712200348"}}, "geometry": {"type": "Point", "coordinates": [146.74596102669165, 33.53579585540071]}}, {"type": "Feature", "properties": {"norad_id": 27424, "name": "AQUA", "group": "resource", "lat": 36.0860839104669, "lon": -60.43089858400854, "alt_km": 684.7009332684638, "timestamp": "2025-12-10T21:43:21.742929+00:00", "meta": {"OBJECT_NAME": "AQUA", "OBJECT_ID": "2002-022A", "EPOCH": "2025-12-10T15:46:22.970784", "MEAN_MOTION": 14.61801296, "ECCENTRICITY": 0.00010123, "INCLINATION": 98.4035, "RA_OF_ASC_NODE": 305.5024, "ARG_OF_PERICENTER": 114.8643, "MEAN_ANOMALY": 57.9663, "EPHEMERIS_TYPE": 0, "CLASSIFICATION_TYPE": "U", "NORAD_CAT_ID": 27424, "ELEMENT_SET_NO": 999, "REV_AT_EPOCH": 25572, "BSTAR": 0.00036659101, "MEAN_MOTION_DOT": 1.781e-05, "MEAN_MOTION_DDOT": 0}, "tle": {"line1": "1 27424U 02022A   25344.65721031  .00001781  00000+0  36659-3 0  9996", "line2": "2 27424  98.4035 305.5024 0001012 114.8643  57.9663 14.61801296255725"}}, "geometry": {"type": "Point", "coordinates": [-60.43089858400854, 36.0860839104669]}}, {"type": "Feature", "properties": {"norad_id": 28051, "name": "IRS-P6 (RESOURCESAT-1)", "group": "resource", "lat": 68.5720370956274, "lon": 3.791186711914901, "alt_km": 784.649679399412, "timestamp": "2025-12-10T21:43:21.742940+00:00", "meta": {"OBJECT_NAME": "IRS-P6 (RESOURCESAT-1)", "OBJECT_ID": "2003-046A", "EPOCH": "2025-12-10T13:45:29.626848", "MEAN_MOTION": 14.36073511, "ECCENTRICITY": 0.00639645, "INCLINATION": 98.2176, "RA_OF_ASC_NODE": 25.0803, "ARG_OF_PERICENTER": 187.1911, "MEAN_ANOMALY": 329.0079, "EPHEMERIS_TYPE": 0, "CLASSIFICATION_TYPE": "U", "NORAD_CAT_ID": 28051, "ELEMENT_SET_NO": 999, "REV_AT_EPOCH": 15345, "BSTAR": 0.00012381144, "MEAN_MOTION_DOT": 3.28e-06, "MEAN_MOTION_DDOT": 0}, "tle": {"line1": "1 28051U 03046A   25344.57325957  .00000328  00000+0  12381-3 0  9990", "line2": "2 28051  98.2176  25.0803 0063964 187.1911 329.0079 14.36073511153454"}}, "geometry": {"type": "Point", "coordinates": [3.791186711914901, 68.5720370956274]}}, {"type": "Feature", "properties": {"norad_id": 28220, "name": "SHIYAN-1 (SY-1)", "group": "resource", "lat": 56.62114079249537, "lon": 34.17843705833849, "alt_km": 475.818876143142, "timestamp": "2025-12-10T21:43:21.742950+00:00", "meta": {"OBJECT_NAME": "SHIYAN-1 (SY-1)", "OBJECT_ID": "2004-012A", "EPOCH": "2025-12-10T04:11:03.635232", "MEAN_MOTION": 15.28033489, "ECCENTRICITY": 0.00057877, "INCLINATION": 97.8933, "RA_OF_ASC_NODE": 45.561, "ARG_OF_PERICENTER": 335.8258, "MEAN_ANOMALY": 24.2708, "EPHEMERIS_TYPE": 0, "CLASSIFICATION_TYPE": "U", "NORAD_CAT_ID": 28220, "ELEMENT_SET_NO": 999, "REV_AT_EPOCH": 18217, "BSTAR": 0.00067493114, "MEAN_MOTION_DOT": 0.00018409, "MEAN_MOTION_DDOT": 0}, "tle": {"line1": "1 28220U 04012A   25344.17434763  .00018409  00000+0  67493-3 0  9997", "line2": "2 28220  97.8933  45.5610 0005787 335.8258  24.2708 15.28033489182172"}}, "geometry": {"type": "Point", "coordinates": [34.17843705833849, 56.62114079249537]}}, {"type": "Feature", "properties": {"norad_id": 28376, "name": "AURA", "group": "resource", "lat": 6.166235557032018, "lon": 116.02884283381053, "alt_km": 692.1443024436257, "timestamp": "2025-12-10T21:43:21.742961+00:00", "meta": {"OBJECT_NAME": "AURA", "OBJECT_ID": "2004-026A", "EPOCH": "2025-12-10T14:21:19.772064", "MEAN_MOTION": 14.60938926, "ECCENTRICITY": 0.00011998, "INCLINATION": 98.3182, "RA_OF_ASC_NODE": 294.8148, "ARG_OF_PERICENTER": 94.0501, "MEAN_ANOMALY": 266.0836, "EPHEMERIS_TYPE": 0, "CLASSIFICATION_TYPE": "U", "NORAD_CAT_ID": 28376, "ELEMENT_SET_NO": 999, "REV_AT_EPOCH": 13867, "BSTAR": 0.00037575702, "MEAN_MOTION_DOT": 1.793e-05, "MEAN_MOTION_DDOT": 0}, "tle": {"line1": "1 28376U 04026A   25344.59814551  .00001793  00000+0  37576-3 0  9994", "line2": "2 28376  98.3182 294.8148 0001199  94.0501 266.0836 14.60938926138678"}}, "geometry": {"type": "Point", "coordinates": [116.02884283381053, 6.166235557032018]}}]}